{"type":"FeatureCollection","features":[{"type":"Feature","properties":{"name_en":"Orientkaj","name_zh":"东方和","description":"991的起始站，992的终点站"},"geometry":{"coordinates":[12.596091883825409,55.711663912183155],"type":"Point"}},{"type":"Feature","properties":{"name_en":"Refshaleøen","name_zh":"雷夫沙勒岛","description":""},"geometry":{"coordinates":[12.607111684012892,55.69089352896617],"type":"Point"}},{"type":"Feature","properties":{"name_en":"Gefion Fountain","name_zh":"吉菲昂喷泉","description":"GEFION北欧神话中的女性守护神","class":"attractions"},"geometry":{"coordinates":[12.597547635083458,55.68926413596276],"type":"Point"},"id":2},{"type":"Feature","properties":{"name_en":"Amalienborg Palace","name_zh":"阿美琳堡宫","description":"曾经的皇家住所现在的女王办公地，12：00有卫兵轮岗换哨！","class":"attractions"},"geometry":{"coordinates":[12.593149999355347,55.68392816348219],"type":"Point"},"id":3},{"type":"Feature","properties":{"name_en":"Nyhavn","name_zh":"新港","description":" 总有一条在童话里蜿蜒曲折七彩的河，童话镇歌词理想照进现实 河岸两边有很多餐厅","class":"attractions"},"geometry":{"coordinates":[12.590905569899007,55.67972035277478],"type":"Point"},"id":4},{"type":"Feature","properties":{"name_en":"The Royal Library","name_zh":"丹麦皇家图书馆","description":" 不能错过的网红打卡点，大大的落地窗拍照非常不错，一楼的shop可以买点图书馆相关的纪念品","class":"attractions"},"geometry":{"coordinates":[12.582058109697158,55.67392948671761],"type":"Point"},"id":5},{"type":"Feature","properties":{"name_en":"Nordre Toldbod","name_zh":"北方海关大楼","description":"距离美人鱼和喷泉最近的一站，步行五分钟内"},"geometry":{"coordinates":[12.599620561597987,55.688147949482044],"type":"Point"},"id":6},{"type":"Feature","properties":{"name_en":"Operaen","name_zh":"哥本哈根剧院","description":""},"geometry":{"coordinates":[12.599037585801682,55.681503336883026],"type":"Point"},"id":7},{"type":"Feature","properties":{"name_en":"Nyhavn","name_zh":"新港站","description":"下船即可到达新港"},"geometry":{"coordinates":[12.594314248660623,55.67912784198546],"type":"Point"},"id":8},{"type":"Feature","properties":{"name_en":"Knippelsbro","name_zh":"克尼佩尔斯布罗","description":""},"geometry":{"coordinates":[12.587015325639157,55.6741639317201],"type":"Point"},"id":9},{"type":"Feature","properties":{"name_en":"Royal Danish Library","name_zh":"丹麦皇家图书馆站","description":"下船走两步即是丹麦皇家图书馆"},"geometry":{"coordinates":[12.58072893695433,55.67220863064631],"type":"Point"},"id":10},{"type":"Feature","properties":{"name_en":"Bryggebroen","name_zh":"码头桥","description":""},"geometry":{"coordinates":[12.568903691945565,55.661905569341485],"type":"Point"},"id":11},{"type":"Feature","properties":{"name_en":"Islands Brygge Syd","name_zh":"群岛码头南","description":""},"geometry":{"coordinates":[12.563912473215424,55.656017587873066],"type":"Point"},"id":12},{"type":"Feature","properties":{"name_en":"Enghave Brygge","name_zh":"恩格哈夫码头","description":""},"geometry":{"coordinates":[12.560843551195774,55.6550033060351],"type":"Point"},"id":13},{"type":"Feature","properties":{"name_en":"Teglholmen","name_zh":"泰格霍尔门","description":"991的终点站，992的起始站"},"geometry":{"coordinates":[12.551324277714485,55.647911232297645],"type":"Point"},"id":14},{"type":"Feature","properties":{"name_en":"The Little Mermaid","name_zh":"小美人鱼","description":"海的女儿 黄昏正好走到小美人鱼雕像这儿，日落下的小美人鱼各个角度都好拍","class":"attractions"},"geometry":{"coordinates":[12.599300613445308,55.69332534383656],"type":"Point"},"id":15},{"type":"Feature","properties":{"name_en":"Route of walking","name_zh":"步行路线","description":" 步行路线观光沿海景点","class":"walkingroutes"},"geometry":{"coordinates":[[12.599280040682913,55.69334669661569],[12.599749267372715,55.69326579387618],[12.598858547555125,55.69271966823143],[12.59880056582918,55.69146690339048],[12.598709649191534,55.69063040007967],[12.599308510680373,55.69029508117771],[12.598647937390126,55.6895494424752],[12.598246720592755,55.68938753220445],[12.597551023315162,55.68927496389804],[12.593354930689316,55.684304871917135],[12.59100769377892,55.67986977288396],[12.593317718957906,55.678770954150195],[12.587301505461255,55.67601971343714],[12.587110605669068,55.675057964635926],[12.582468114586788,55.673666913757614],[12.582056971463771,55.67402434127436]],"type":"LineString"}},{"type":"Feature","properties":{"name_en":"991/992 Harbour Buses","name_zh":"991/992 海上公交","description":" 乘坐这一公交，可以看完海边所有著名景点"},"geometry":{"coordinates":[[12.607112303621534,55.690903520846916],[12.602881878483913,55.690112816101305],[12.602757022186125,55.69007141750649],[12.599940069942647,55.688129795329814],[12.59984906734934,55.68810781050723],[12.599637811330439,55.68816460460724],[12.59971581355245,55.68806017668226],[12.599732064016337,55.68796124470657],[12.599738564201516,55.687719409934175],[12.598660794757677,55.68165932393609],[12.598675967563679,55.68159730533719],[12.598736658783281,55.6815502566798],[12.598858041223707,55.681518178017],[12.598914939242093,55.681518178017],[12.599040114883707,55.68150320796548],[12.59894149165072,55.68146257493939],[12.59505596782111,55.679119628690586],[12.594952228509129,55.67908325856678],[12.594814365674864,55.67907980386133],[12.594321123090424,55.679126442359745],[12.594455922306167,55.67905562091457],[12.594508003821062,55.67901070968756],[12.594581530666403,55.67883106426498],[12.594642803036805,55.67861859794081],[12.594446731450631,55.67841303999171],[12.586864958164426,55.67443820606866],[12.586857349891119,55.67426437983471],[12.58702287583796,55.67417740420808],[12.586797158637012,55.67418588964355],[12.580896209283594,55.67218348841152],[12.580727211705096,55.672218432574084],[12.580958175061738,55.672011943887185],[12.580862409767349,55.67156719532099],[12.5782021615762,55.66987809310257],[12.571319475898605,55.66450824447688],[12.568936321880017,55.661906757671375],[12.567956268967237,55.661855101907406],[12.567298739721394,55.66166696559887],[12.566679328112798,55.66105954791573],[12.563801331435883,55.65614865930809],[12.56391073946196,55.656020464286286],[12.560850941401043,55.65501135498704],[12.55902902540359,55.65114472782557],[12.554256604435011,55.647563918610615],[12.553533031459722,55.647217997018515],[12.552990351728596,55.647132933863986],[12.552747245008248,55.64710711524427],[12.552358294402808,55.64712528152856],[12.551939781915365,55.6471843218948],[12.551633480777895,55.64737655156739],[12.55148195061588,55.64755346039962],[12.551330420452246,55.64791317256092]],"type":"LineString"}},{"type":"Feature","properties":{"name_en":"991/992 Harbour Buses","name_zh":"991/992 海上公交","description":" 乘坐这一公交，可以看完海边所有著名景点"},"geometry":{"coordinates":[[12.596091629964803,55.711668488959674],[12.603722279433242,55.71008923016146],[12.606493001129934,55.707895953548814],[12.6061365634867,55.69105081058376],[12.606296652427744,55.690966591212174],[12.607097097130122,55.69090041872221]],"type":"LineString"}}]}